{
  "type": "FeatureCollection",
  "features": [
    {
      "type": "Feature",
      "properties": {
        "norad_id": 36200,
        "name": "FENGYUN 1C DEB",
        "group": "fengyun-1c-debris",
        "lat": -65.15319354460007,
        "lon": -142.53068720226216,
        "alt_km": 719.5837872984066,
        "timestamp": "2025-12-10T16:57:11.924494+00:00",
        "meta_object_name": "FENGYUN 1C DEB",
        "meta_object_id": "1999-025DTZ",
        "meta_epoch": "2025-12-07T03:51:08.362944",
        "meta_mean_motion": 14.58359228,
        "meta_eccentricity": 0.00334809,
        "meta_inclination": 99.3875,
        "meta_ra_of_asc_node": 54.4014,
        "meta_arg_of_pericenter": 25.778,
        "meta_mean_anomaly": 334.5075,
        "meta_ephemeris_type": 0,
        "meta_classification_type": "U",
        "meta_norad_cat_id": 36200,
        "meta_element_set_no": 999,
        "meta_rev_at_epoch": 73279,
        "meta_bstar": 0.0062871133,
        "meta_mean_motion_dot": 0.00029404,
        "meta_mean_motion_ddot": 0,
        "tle_line1": "1 36200U 99025DTZ 25341.16051346  .00029404  00000+0  62871-2 0  9991",
        "tle_line2": "2 36200  99.3875  54.4014 0033480  25.7780 334.5075 14.58359228732791"
      },
      "geometry": {
        "type": "Point",
        "coordinates": [
          -142.53068720226216,
          -65.15319354460007
        ]
      }
    },
    {
      "type": "Feature",
      "properties": {
        "norad_id": 36203,
        "name": "FENGYUN 1C DEB",
        "group": "fengyun-1c-debris",
        "lat": 70.30436630241331,
        "lon": -98.36879117438767,
        "alt_km": 619.4185033837421,
        "timestamp": "2025-12-10T16:57:11.924504+00:00",
        "meta_object_name": "FENGYUN 1C DEB",
        "meta_object_id": "1999-025DUC",
        "meta_epoch": "2025-12-08T14:16:01.371648",
        "meta_mean_motion": 14.78297245,
        "meta_eccentricity": 0.0083233,
        "meta_inclination": 99.0964,
        "meta_ra_of_asc_node": 285.836,
        "meta_arg_of_pericenter": 161.4127,
        "meta_mean_anomaly": 199.0151,
        "meta_ephemeris_type": 0,
        "meta_classification_type": "U",
        "meta_norad_cat_id": 36203,
        "meta_element_set_no": 999,
        "meta_rev_at_epoch": 63368,
        "meta_bstar": 0.0016876,
        "meta_mean_motion_dot": 0.00012947,
        "meta_mean_motion_ddot": 0,
        "tle_line1": "1 36203U 99025DUC 25342.59446032  .00012947  00000+0  16876-2 0  9990",
        "tle_line2": "2 36203  99.0964 285.8360 0083233 161.4127 199.0151 14.78297245633687"
      },
      "geometry": {
        "type": "Point",
        "coordinates": [
          -98.36879117438767,
          70.30436630241331
        ]
      }
    },
    {
      "type": "Feature",
      "properties": {
        "norad_id": 36204,
        "name": "FENGYUN 1C DEB",
        "group": "fengyun-1c-debris",
        "lat": 13.960164872945635,
        "lon": -96.03495874048065,
        "alt_km": 763.1524513110844,
        "timestamp": "2025-12-10T16:57:11.924514+00:00",
        "meta_object_name": "FENGYUN 1C DEB",
        "meta_object_id": "1999-025DUD",
        "meta_epoch": "2025-12-09T13:24:01.015776",
        "meta_mean_motion": 14.34542102,
        "meta_eccentricity": 0.002004,
        "meta_inclination": 99.2908,
        "meta_ra_of_asc_node": 80.3994,
        "meta_arg_of_pericenter": 171.7637,
        "meta_mean_anomaly": 188.3878,
        "meta_ephemeris_type": 0,
        "meta_classification_type": "U",
        "meta_norad_cat_id": 36204,
        "meta_element_set_no": 999,
        "meta_rev_at_epoch": 94382,
        "meta_bstar": 0.0020121,
        "meta_mean_motion_dot": 5.645e-05,
        "meta_mean_motion_ddot": 0,
        "tle_line1": "1 36204U 99025DUD 25343.55834509  .00005645  00000+0  20121-2 0  9993",
        "tle_line2": "2 36204  99.2908  80.3994 0020040 171.7637 188.3878 14.34542102943820"
      },
      "geometry": {
        "type": "Point",
        "coordinates": [
          -96.03495874048065,
          13.960164872945635
        ]
      }
    },
    {
      "type": "Feature",
      "properties": {
        "norad_id": 36206,
        "name": "FENGYUN 1C DEB",
        "group": "fengyun-1c-debris",
        "lat": -79.76568456903146,
        "lon": 63.66929061358409,
        "alt_km": 834.7269924033171,
        "timestamp": "2025-12-10T16:57:11.924524+00:00",
        "meta_object_name": "FENGYUN 1C DEB",
        "meta_object_id": "1999-025DUF",
        "meta_epoch": "2025-11-26T07:02:56.668416",
        "meta_mean_motion": 14.21517518,
        "meta_eccentricity": 0.00312218,
        "meta_inclination": 98.4807,
        "meta_ra_of_asc_node": 354.0922,
        "meta_arg_of_pericenter": 66.8272,
        "meta_mean_anomaly": 293.619,
        "meta_ephemeris_type": 0,
        "meta_classification_type": "U",
        "meta_norad_cat_id": 36206,
        "meta_element_set_no": 999,
        "meta_rev_at_epoch": 64187,
        "meta_bstar": 0.00073137291,
        "meta_mean_motion_dot": 1.568e-05,
        "meta_mean_motion_ddot": 0,
        "tle_line1": "1 36206U 99025DUF 25330.29371144  .00001568  00000+0  73137-3 0  9999",
        "tle_line2": "2 36206  98.4807 354.0922 0031221  66.8272 293.6190 14.21517518641871"
      },
      "geometry": {
        "type": "Point",
        "coordinates": [
          63.66929061358409,
          -79.76568456903146
        ]
      }
    },
    {
      "type": "Feature",
      "properties": {
        "norad_id": 36211,
        "name": "FENGYUN 1C DEB",
        "group": "fengyun-1c-debris",
        "lat": 25.01169790444914,
        "lon": -26.075908820869483,
        "alt_km": 969.8772947969046,
        "timestamp": "2025-12-10T16:57:11.924535+00:00",
        "meta_object_name": "FENGYUN 1C DEB",
        "meta_object_id": "1999-025DUL",
        "meta_epoch": "2025-12-09T17:15:13.514688",
        "meta_mean_motion": 14.25977627,
        "meta_eccentricity": 0.02664918,
        "meta_inclination": 98.5041,
        "meta_ra_of_asc_node": 336.9673,
        "meta_arg_of_pericenter": 237.7437,
        "meta_mean_anomaly": 119.7667,
        "meta_ephemeris_type": 0,
        "meta_classification_type": "U",
        "meta_norad_cat_id": 36211,
        "meta_element_set_no": 999,
        "meta_rev_at_epoch": 94326,
        "meta_bstar": 0.00084045027,
        "meta_mean_motion_dot": 2.863e-05,
        "meta_mean_motion_ddot": 0,
        "tle_line1": "1 36211U 99025DUL 25343.71890642  .00002863  00000+0  84045-3 0  9994",
        "tle_line2": "2 36211  98.5041 336.9673 0266491 237.7437 119.7667 14.25977627943261"
      },
      "geometry": {
        "type": "Point",
        "coordinates": [
          -26.075908820869483,
          25.01169790444914
        ]
      }
    },
    {
      "type": "Feature",
      "properties": {
        "norad_id": 36216,
        "name": "FENGYUN 1C DEB",
        "group": "fengyun-1c-debris",
        "lat": 81.01317110861986,
        "lon": -68.34957028098901,
        "alt_km": 807.233389219763,
        "timestamp": "2025-12-10T16:57:11.924545+00:00",
        "meta_object_name": "FENGYUN 1C DEB",
        "meta_object_id": "1999-025DUR",
        "meta_epoch": "2025-12-09T18:32:38.416704",
        "meta_mean_motion": 14.18849305,
        "meta_eccentricity": 0.00451569,
        "meta_inclination": 98.6092,
        "meta_ra_of_asc_node": 4.0664,
        "meta_arg_of_pericenter": 26.4592,
        "meta_mean_anomaly": 333.8876,
        "meta_ephemeris_type": 0,
        "meta_classification_type": "U",
        "meta_norad_cat_id": 36216,
        "meta_element_set_no": 999,
        "meta_rev_at_epoch": 64330,
        "meta_bstar": 0.00051766748,
        "meta_mean_motion_dot": 1.046e-05,
        "meta_mean_motion_ddot": 0,
        "tle_line1": "1 36216U 99025DUR 25343.77266686  .00001046  00000+0  51767-3 0  9997",
        "tle_line2": "2 36216  98.6092   4.0664 0045156  26.4592 333.8876 14.18849305643300"
      },
      "geometry": {
        "type": "Point",
        "coordinates": [
          -68.34957028098901,
          81.01317110861986
        ]
      }
    },
    {
      "type": "Feature",
      "properties": {
        "norad_id": 36218,
        "name": "FENGYUN 1C DEB",
        "group": "fengyun-1c-debris",
        "lat": -30.669976276751203,
        "lon": -169.0786868462511,
        "alt_km": 618.1925223639091,
        "timestamp": "2025-12-10T16:57:11.924555+00:00",
        "meta_object_name": "FENGYUN 1C DEB",
        "meta_object_id": "1999-025DUT",
        "meta_epoch": "2025-12-09T06:48:31.768992",
        "meta_mean_motion": 14.70907849,
        "meta_eccentricity": 0.0073054,
        "meta_inclination": 99.0767,
        "meta_ra_of_asc_node": 183.8976,
        "meta_arg_of_pericenter": 306.3851,
        "meta_mean_anomaly": 53.0628,
        "meta_ephemeris_type": 0,
        "meta_classification_type": "U",
        "meta_norad_cat_id": 36218,
        "meta_element_set_no": 999,
        "meta_rev_at_epoch": 59092,
        "meta_bstar": 0.0015375,
        "meta_mean_motion_dot": 9.758e-05,
        "meta_mean_motion_ddot": 0,
        "tle_line1": "1 36218U 99025DUT 25343.28370103  .00009758  00000+0  15375-2 0  9997",
        "tle_line2": "2 36218  99.0767 183.8976 0073054 306.3851  53.0628 14.70907849590925"
      },
      "geometry": {
        "type": "Point",
        "coordinates": [
          -169.0786868462511,
          -30.669976276751203
        ]
      }
    }
  ]
}